{
  "type": "FeatureCollection",
  "features": [
    {
      "type": "Feature",
      "properties": {
        "norad_id": 30564,
        "name": "FENGYUN 1C DEB",
        "group": "fengyun-1c-debris",
        "lat": 80.89945311652158,
        "lon": -75.53366866051978,
        "alt_km": 735.899919780164,
        "timestamp": "2025-12-13T20:38:51.282468+00:00",
        "meta_object_name": "FENGYUN 1C DEB",
        "meta_object_id": "1999-025ALE",
        "meta_epoch": "2025-12-12T19:27:00.201600",
        "meta_mean_motion": 14.05749459,
        "meta_eccentricity": 0.02029944,
        "meta_inclination": 98.796,
        "meta_ra_of_asc_node": 358.5969,
        "meta_arg_of_pericenter": 118.6813,
        "meta_mean_anomaly": 59.8104,
        "meta_ephemeris_type": 0,
        "meta_classification_type": "U",
        "meta_norad_cat_id": 30564,
        "meta_element_set_no": 999,
        "meta_rev_at_epoch": 96296,
        "meta_bstar": 0.00089359777,
        "meta_mean_motion_dot": 1.715e-05,
        "meta_mean_motion_ddot": 0,
        "tle_line1": "1 30564U 99025ALE 25346.81041900  .00001715  00000+0  89360-3 0  9998",
        "tle_line2": "2 30564  98.7960 358.5969 0202994 118.6813  59.8104 14.05749459962965"
      },
      "geometry": {
        "type": "Point",
        "coordinates": [
          -75.53366866051978,
          80.89945311652158
        ]
      }
    },
    {
      "type": "Feature",
      "properties": {
        "norad_id": 30565,
        "name": "FENGYUN 1C DEB",
        "group": "fengyun-1c-debris",
        "lat": -76.08895811594097,
        "lon": 1.118757592567934,
        "alt_km": 874.5827195159036,
        "timestamp": "2025-12-13T20:38:51.282478+00:00",
        "meta_object_name": "FENGYUN 1C DEB",
        "meta_object_id": "1999-025ALF",
        "meta_epoch": "2025-12-12T14:35:48.326208",
        "meta_mean_motion": 14.09934927,
        "meta_eccentricity": 0.01414278,
        "meta_inclination": 98.4535,
        "meta_ra_of_asc_node": 216.8428,
        "meta_arg_of_pericenter": 357.5972,
        "meta_mean_anomaly": 31,
        "meta_ephemeris_type": 0,
        "meta_classification_type": "U",
        "meta_norad_cat_id": 30565,
        "meta_element_set_no": 999,
        "meta_rev_at_epoch": 95925,
        "meta_bstar": 0.002659751,
        "meta_mean_motion_dot": 5.104e-05,
        "meta_mean_motion_ddot": 0,
        "tle_line1": "1 30565U 99025ALF 25346.60819822  .00005104  00000+0  26598-2 0  9991",
        "tle_line2": "2 30565  98.4535 216.8428 0141427 357.5972  31.0000 14.09934927959255"
      },
      "geometry": {
        "type": "Point",
        "coordinates": [
          1.118757592567934,
          -76.08895811594097
        ]
      }
    },
    {
      "type": "Feature",
      "properties": {
        "norad_id": 30566,
        "name": "FENGYUN 1C DEB",
        "group": "fengyun-1c-debris",
        "lat": -27.76757669514289,
        "lon": -148.47593610339263,
        "alt_km": 815.9771768087057,
        "timestamp": "2025-12-13T20:38:51.282488+00:00",
        "meta_object_name": "FENGYUN 1C DEB",
        "meta_object_id": "1999-025ALG",
        "meta_epoch": "2025-12-13T02:48:15.395040",
        "meta_mean_motion": 14.11690142,
        "meta_eccentricity": 0.00683851,
        "meta_inclination": 99.2165,
        "meta_ra_of_asc_node": 35.6647,
        "meta_arg_of_pericenter": 181.0682,
        "meta_mean_anomaly": 210.299,
        "meta_ephemeris_type": 0,
        "meta_classification_type": "U",
        "meta_norad_cat_id": 30566,
        "meta_element_set_no": 999,
        "meta_rev_at_epoch": 96388,
        "meta_bstar": 0.0018512123,
        "meta_mean_motion_dot": 3.399e-05,
        "meta_mean_motion_ddot": 0,
        "tle_line1": "1 30566U 99025ALG 25347.11684485  .00003399  00000+0  18512-2 0  9995",
        "tle_line2": "2 30566  99.2165  35.6647 0068385 181.0682 210.2990 14.11690142963887"
      },
      "geometry": {
        "type": "Point",
        "coordinates": [
          -148.47593610339263,
          -27.76757669514289
        ]
      }
    },
    {
      "type": "Feature",
      "properties": {
        "norad_id": 30567,
        "name": "FENGYUN 1C DEB",
        "group": "fengyun-1c-debris",
        "lat": 26.59749667133191,
        "lon": 162.95414326133078,
        "alt_km": 795.8940163039852,
        "timestamp": "2025-12-13T20:38:51.282499+00:00",
        "meta_object_name": "FENGYUN 1C DEB",
        "meta_object_id": "1999-025ALH",
        "meta_epoch": "2025-12-12T21:54:23.817024",
        "meta_mean_motion": 14.08898869,
        "meta_eccentricity": 0.01087644,
        "meta_inclination": 98.7758,
        "meta_ra_of_asc_node": 337.5955,
        "meta_arg_of_pericenter": 188.8177,
        "meta_mean_anomaly": 201.5364,
        "meta_ephemeris_type": 0,
        "meta_classification_type": "U",
        "meta_norad_cat_id": 30567,
        "meta_element_set_no": 999,
        "meta_rev_at_epoch": 96776,
        "meta_bstar": 0.00046255666,
        "meta_mean_motion_dot": 8.02e-06,
        "meta_mean_motion_ddot": 0,
        "tle_line1": "1 30567U 99025ALH 25346.91277566  .00000802  00000+0  46256-3 0  9994",
        "tle_line2": "2 30567  98.7758 337.5955 0108764 188.8177 201.5364 14.08898869967767"
      },
      "geometry": {
        "type": "Point",
        "coordinates": [
          162.95414326133078,
          26.59749667133191
        ]
      }
    },
    {
      "type": "Feature",
      "properties": {
        "norad_id": 30568,
        "name": "FENGYUN 1C DEB",
        "group": "fengyun-1c-debris",
        "lat": -42.96859548266983,
        "lon": -30.312290192216633,
        "alt_km": 705.6036960541651,
        "timestamp": "2025-12-13T20:38:51.282509+00:00",
        "meta_object_name": "FENGYUN 1C DEB",
        "meta_object_id": "1999-025ALJ",
        "meta_epoch": "2025-12-13T05:34:57.853056",
        "meta_mean_motion": 14.55184042,
        "meta_eccentricity": 0.00161809,
        "meta_inclination": 98.9426,
        "meta_ra_of_asc_node": 157.4506,
        "meta_arg_of_pericenter": 192.8927,
        "meta_mean_anomaly": 344.0913,
        "meta_ephemeris_type": 0,
        "meta_classification_type": "U",
        "meta_norad_cat_id": 30568,
        "meta_element_set_no": 999,
        "meta_rev_at_epoch": 97666,
        "meta_bstar": 0.0060074592,
        "meta_mean_motion_dot": 0.00026066,
        "meta_mean_motion_ddot": 0,
        "tle_line1": "1 30568U 99025ALJ 25347.23261404  .00026066  00000+0  60075-2 0  9999",
        "tle_line2": "2 30568  98.9426 157.4506 0016180 192.8927 344.0913 14.55184042976666"
      },
      "geometry": {
        "type": "Point",
        "coordinates": [
          -30.312290192216633,
          -42.96859548266983
        ]
      }
    },
    {
      "type": "Feature",
      "properties": {
        "norad_id": 30569,
        "name": "FENGYUN 1C DEB",
        "group": "fengyun-1c-debris",
        "lat": -52.338745630701,
        "lon": 138.41169561206576,
        "alt_km": 659.0122181873248,
        "timestamp": "2025-12-13T20:38:51.282520+00:00",
        "meta_object_name": "FENGYUN 1C DEB",
        "meta_object_id": "1999-025ALK",
        "meta_epoch": "2025-12-13T07:51:10.822176",
        "meta_mean_motion": 14.73724999,
        "meta_eccentricity": 0.00059643,
        "meta_inclination": 98.7362,
        "meta_ra_of_asc_node": 126.3457,
        "meta_arg_of_pericenter": 84.0254,
        "meta_mean_anomaly": 276.1631,
        "meta_ephemeris_type": 0,
        "meta_classification_type": "U",
        "meta_norad_cat_id": 30569,
        "meta_element_set_no": 999,
        "meta_rev_at_epoch": 98215,
        "meta_bstar": 0.0057899467,
        "meta_mean_motion_dot": 0.00037974,
        "meta_mean_motion_ddot": 0,
        "tle_line1": "1 30569U 99025ALK 25347.32720859  .00037974  00000+0  57899-2 0  9994",
        "tle_line2": "2 30569  98.7362 126.3457 0005964  84.0254 276.1631 14.73724999982151"
      },
      "geometry": {
        "type": "Point",
        "coordinates": [
          138.41169561206576,
          -52.338745630701
        ]
      }
    },
    {
      "type": "Feature",
      "properties": {
        "norad_id": 30570,
        "name": "FENGYUN 1C DEB",
        "group": "fengyun-1c-debris",
        "lat": -55.99860445954318,
        "lon": 33.49734171869308,
        "alt_km": 853.6760493348602,
        "timestamp": "2025-12-13T20:38:51.282530+00:00",
        "meta_object_name": "FENGYUN 1C DEB",
        "meta_object_id": "1999-025ALL",
        "meta_epoch": "2025-12-13T02:32:37.624992",
        "meta_mean_motion": 14.14269224,
        "meta_eccentricity": 0.00352771,
        "meta_inclination": 98.7152,
        "meta_ra_of_asc_node": 19.6176,
        "meta_arg_of_pericenter": 210.8181,
        "meta_mean_anomaly": 213.4466,
        "meta_ephemeris_type": 0,
        "meta_classification_type": "U",
        "meta_norad_cat_id": 30570,
        "meta_element_set_no": 999,
        "meta_rev_at_epoch": 97003,
        "meta_bstar": 0.00066134459,
        "meta_mean_motion_dot": 1.227e-05,
        "meta_mean_motion_ddot": 0,
        "tle_line1": "1 30570U 99025ALL 25347.10599103  .00001227  00000+0  66134-3 0  9993",
        "tle_line2": "2 30570  98.7152  19.6176 0035277 210.8181 213.4466 14.14269224970034"
      },
      "geometry": {
        "type": "Point",
        "coordinates": [
          33.49734171869308,
          -55.99860445954318
        ]
      }
    }
  ]
}